{
  "type": "FeatureCollection",
  "features": [
    {
      "type": "Feature",
      "properties": {
        "norad_id": 35033,
        "name": "COSMOS 2251 DEB",
        "group": "cosmos-2251-debris",
        "lat": -8.749087729646476,
        "lon": 11.50619915728361,
        "alt_km": 729.2631695004793,
        "timestamp": "2025-12-06T03:35:02.281987+00:00",
        "meta_object_name": "COSMOS 2251 DEB",
        "meta_object_id": "1993-036AGW",
        "meta_epoch": "2025-12-01T21:46:02.380800",
        "meta_mean_motion": 14.50844438,
        "meta_eccentricity": 0.00143855,
        "meta_inclination": 74.0263,
        "meta_ra_of_asc_node": 196.9584,
        "meta_arg_of_pericenter": 303.7279,
        "meta_mean_anomaly": 56.251,
        "meta_ephemeris_type": 0,
        "meta_classification_type": "U",
        "meta_norad_cat_id": 35033,
        "meta_element_set_no": 999,
        "meta_rev_at_epoch": 65770,
        "meta_bstar": 0.00069994659,
        "meta_mean_motion_dot": 2.736e-05,
        "meta_mean_motion_ddot": 0,
        "tle_line1": "1 35033U 93036AGW 25335.90697200  .00002736  00000+0  69995-3 0  9994",
        "tle_line2": "2 35033  74.0263 196.9584 0014385 303.7279  56.2510 14.50844438657707"
      },
      "geometry": {
        "type": "Point",
        "coordinates": [
          11.50619915728361,
          -8.749087729646476
        ]
      }
    },
    {
      "type": "Feature",
      "properties": {
        "norad_id": 35037,
        "name": "COSMOS 2251 DEB",
        "group": "cosmos-2251-debris",
        "lat": 17.451659840627435,
        "lon": 155.1697165186856,
        "alt_km": 254.76934673391588,
        "timestamp": "2025-12-06T03:35:02.281998+00:00",
        "meta_object_name": "COSMOS 2251 DEB",
        "meta_object_id": "1993-036AHA",
        "meta_epoch": "2025-11-07T11:23:37.197312",
        "meta_mean_motion": 15.53719687,
        "meta_eccentricity": 0.0010282,
        "meta_inclination": 73.9601,
        "meta_ra_of_asc_node": 214.7185,
        "meta_arg_of_pericenter": 129.4999,
        "meta_mean_anomaly": 230.7127,
        "meta_ephemeris_type": 0,
        "meta_classification_type": "U",
        "meta_norad_cat_id": 35037,
        "meta_element_set_no": 999,
        "meta_rev_at_epoch": 66656,
        "meta_bstar": 0.0068953187,
        "meta_mean_motion_dot": 0.00469331,
        "meta_mean_motion_ddot": 0,
        "tle_line1": "1 35037U 93036AHA 25311.47473608  .00469331  00000+0  68953-2 0  9998",
        "tle_line2": "2 35037  73.9601 214.7185 0010282 129.4999 230.7127 15.53719687666563"
      },
      "geometry": {
        "type": "Point",
        "coordinates": [
          155.1697165186856,
          17.451659840627435
        ]
      }
    },
    {
      "type": "Feature",
      "properties": {
        "norad_id": 35038,
        "name": "COSMOS 2251 DEB",
        "group": "cosmos-2251-debris",
        "lat": 44.231701030569155,
        "lon": 70.52856254303356,
        "alt_km": 722.969637036369,
        "timestamp": "2025-12-06T03:35:02.282008+00:00",
        "meta_object_name": "COSMOS 2251 DEB",
        "meta_object_id": "1993-036AHB",
        "meta_epoch": "2025-12-02T22:25:29.053056",
        "meta_mean_motion": 14.25054791,
        "meta_eccentricity": 0.01136239,
        "meta_inclination": 74.1068,
        "meta_ra_of_asc_node": 60.197,
        "meta_arg_of_pericenter": 46.834,
        "meta_mean_anomaly": 72.6585,
        "meta_ephemeris_type": 0,
        "meta_classification_type": "U",
        "meta_norad_cat_id": 35038,
        "meta_element_set_no": 999,
        "meta_rev_at_epoch": 85429,
        "meta_bstar": 0.001245273,
        "meta_mean_motion_dot": 3.098e-05,
        "meta_mean_motion_ddot": 0,
        "tle_line1": "1 35038U 93036AHB 25336.93436404  .00003098  00000+0  12453-2 0  9998",
        "tle_line2": "2 35038  74.1068  60.1970 0113623  46.8340  72.6585 14.25054791854290"
      },
      "geometry": {
        "type": "Point",
        "coordinates": [
          70.52856254303356,
          44.231701030569155
        ]
      }
    },
    {
      "type": "Feature",
      "properties": {
        "norad_id": 35043,
        "name": "COSMOS 2251 DEB",
        "group": "cosmos-2251-debris",
        "lat": 69.05158289526413,
        "lon": -170.18216660469022,
        "alt_km": 700.0679191115541,
        "timestamp": "2025-12-06T03:35:02.282019+00:00",
        "meta_object_name": "COSMOS 2251 DEB",
        "meta_object_id": "1993-036AHG",
        "meta_epoch": "2025-12-04T12:04:43.932000",
        "meta_mean_motion": 14.76234637,
        "meta_eccentricity": 0.0098548,
        "meta_inclination": 73.9539,
        "meta_ra_of_asc_node": 61.8026,
        "meta_arg_of_pericenter": 272.4177,
        "meta_mean_anomaly": 86.5717,
        "meta_ephemeris_type": 0,
        "meta_classification_type": "U",
        "meta_norad_cat_id": 35043,
        "meta_element_set_no": 999,
        "meta_rev_at_epoch": 67297,
        "meta_bstar": 0.0098371,
        "meta_mean_motion_dot": 0.00074481,
        "meta_mean_motion_ddot": 0,
        "tle_line1": "1 35043U 93036AHG 25338.50328625  .00074481  00000+0  98371-2 0  9991",
        "tle_line2": "2 35043  73.9539  61.8026 0098548 272.4177  86.5717 14.76234637672978"
      },
      "geometry": {
        "type": "Point",
        "coordinates": [
          -170.18216660469022,
          69.05158289526413
        ]
      }
    },
    {
      "type": "Feature",
      "properties": {
        "norad_id": 35045,
        "name": "COSMOS 2251 DEB",
        "group": "cosmos-2251-debris",
        "lat": -57.72346355331423,
        "lon": 36.78298398630397,
        "alt_km": 767.6043797299262,
        "timestamp": "2025-12-06T03:35:02.282029+00:00",
        "meta_object_name": "COSMOS 2251 DEB",
        "meta_object_id": "1993-036AHJ",
        "meta_epoch": "2025-12-04T12:26:09.068064",
        "meta_mean_motion": 14.00359627,
        "meta_eccentricity": 0.0183193,
        "meta_inclination": 73.7195,
        "meta_ra_of_asc_node": 67.223,
        "meta_arg_of_pericenter": 310.3956,
        "meta_mean_anomaly": 48.1309,
        "meta_ephemeris_type": 0,
        "meta_classification_type": "U",
        "meta_norad_cat_id": 35045,
        "meta_element_set_no": 999,
        "meta_rev_at_epoch": 84528,
        "meta_bstar": 0.0011472,
        "meta_mean_motion_dot": 1.937e-05,
        "meta_mean_motion_ddot": 0,
        "tle_line1": "1 35045U 93036AHJ 25338.51816051  .00001937  00000+0  11472-2 0  9992",
        "tle_line2": "2 35045  73.7195  67.2230 0183193 310.3956  48.1309 14.00359627845282"
      },
      "geometry": {
        "type": "Point",
        "coordinates": [
          36.78298398630397,
          -57.72346355331423
        ]
      }
    },
    {
      "type": "Feature",
      "properties": {
        "norad_id": 35060,
        "name": "COSMOS 2251 DEB",
        "group": "cosmos-2251-debris",
        "lat": -48.67491560649473,
        "lon": -122.45818823359978,
        "alt_km": 749.1900834325106,
        "timestamp": "2025-12-06T03:35:02.282040+00:00",
        "meta_object_name": "COSMOS 2251 DEB",
        "meta_object_id": "1993-036AHP",
        "meta_epoch": "2025-11-28T02:37:07.839264",
        "meta_mean_motion": 14.41547968,
        "meta_eccentricity": 0.00179641,
        "meta_inclination": 74.0363,
        "meta_ra_of_asc_node": 271.4275,
        "meta_arg_of_pericenter": 359.5881,
        "meta_mean_anomaly": 0.5257,
        "meta_ephemeris_type": 0,
        "meta_classification_type": "U",
        "meta_norad_cat_id": 35060,
        "meta_element_set_no": 999,
        "meta_rev_at_epoch": 87031,
        "meta_bstar": 0.0004076845,
        "meta_mean_motion_dot": 1.301e-05,
        "meta_mean_motion_ddot": 0,
        "tle_line1": "1 35060U 93036AHP 25332.10911851  .00001301  00000+0  40768-3 0  9998",
        "tle_line2": "2 35060  74.0363 271.4275 0017964 359.5881   0.5257 14.41547968870310"
      },
      "geometry": {
        "type": "Point",
        "coordinates": [
          -122.45818823359978,
          -48.67491560649473
        ]
      }
    },
    {
      "type": "Feature",
      "properties": {
        "norad_id": 35061,
        "name": "COSMOS 2251 DEB",
        "group": "cosmos-2251-debris",
        "lat": -63.15805966317975,
        "lon": -75.97344114483005,
        "alt_km": 695.9579940618278,
        "timestamp": "2025-12-06T03:35:02.282051+00:00",
        "meta_object_name": "COSMOS 2251 DEB",
        "meta_object_id": "1993-036AHQ",
        "meta_epoch": "2025-12-03T05:33:06.011712",
        "meta_mean_motion": 14.67690423,
        "meta_eccentricity": 0.0038808,
        "meta_inclination": 74.0447,
        "meta_ra_of_asc_node": 324.0838,
        "meta_arg_of_pericenter": 77.8847,
        "meta_mean_anomaly": 282.6667,
        "meta_ephemeris_type": 0,
        "meta_classification_type": "U",
        "meta_norad_cat_id": 35061,
        "meta_element_set_no": 999,
        "meta_rev_at_epoch": 88435,
        "meta_bstar": 0.0010187,
        "meta_mean_motion_dot": 5.838e-05,
        "meta_mean_motion_ddot": 0,
        "tle_line1": "1 35061U 93036AHQ 25337.23131958  .00005838  00000+0  10187-2 0  9990",
        "tle_line2": "2 35061  74.0447 324.0838 0038808  77.8847 282.6667 14.67690423884356"
      },
      "geometry": {
        "type": "Point",
        "coordinates": [
          -75.97344114483005,
          -63.15805966317975
        ]
      }
    }
  ]
}